NORAD_CAT_ID,OBJECT_NAME,OBJECT_TYPE,EPOCH,MEAN_MOTION,ECCENTRICITY,INCLINATION,RA_OF_ASC_NODE,ARG_OF_PERICENTER,MEAN_ANOMALY,BSTAR,MEAN_MOTION_DOT,MEAN_MOTION_DDOT,TLE_LINE0,TLE_LINE1,TLE_LINE2,SEMIMAJOR_AXIS,PERIOD,APOGEE,PERIGEE,DECAYED
52457.0,STARLINK-3899,PAYLOAD,2022-08-15 22:00:00,15.088448499999998,0.0001617,53.218,152.9939,74.1709,134.2905,-0.0025823,-0.00041156,0.0,0 STARLINK-3899,1 52457U 22049G   22227.91667824 -.00041156  00000-0 -25823-2 0  9999,2 52457  53.2180 152.9939 0001617  74.1709 134.2905 15.08844850  1306,6917.866,95.437,540.849,538.612,0.0
52457.0,STARLINK-3899,PAYLOAD,2022-08-16 06:00:02,15.08800765,0.0001698,53.2177,151.4988,67.1973,152.9169,0.0033705999999999,0.00053706,0.0,0 STARLINK-3899,1 52457U 22049G   22228.25002315  .00053706  00000-0  33706-2 0  9996,2 52457  53.2177 151.4988 0001698  67.1973 152.9169 15.08800765 15800,6918.0,95.44,541.04,538.691,0.0
52457.0,STARLINK-3899,PAYLOAD,2022-08-16 14:00:01,15.08816805,0.0001588999999999,53.2178,150.0008,75.1521,156.4763,0.0019157,0.00030313,0.0,0 STARLINK-3899,1 52457U 22049G   22228.58334491  .00030313  00000-0  19157-2 0  9998,2 52457  53.2178 150.0008 0001589  75.1521 156.4763 15.08816805  1307,6917.951,95.439,540.9159999999998,538.717,0.0
52457.0,STARLINK-3899,PAYLOAD,2022-08-16 22:00:00,15.08853803,0.0001646,53.2178,148.5052,75.9444,167.2596,-0.0010944,-0.0001766999999999,0.0,0 STARLINK-3899,1 52457U 22049G   22228.91667824 -.00017670  00000-0 -10944-2 0  9992,2 52457  53.2178 148.5052 0001646  75.9444 167.2596 15.08853803  1307,6917.8380000000025,95.437,540.842,538.565,0.0
52457.0,STARLINK-3899,PAYLOAD,2022-08-17 16:00:00,15.08801849,0.0001484,53.2172,145.138,80.0298,279.2862,0.0034021,0.00054216,0.0,0 STARLINK-3899,1 52457U 22049G   22229.66667824  .00054216  00000-0  34021-2 0  9992,2 52457  53.2172 145.1380 0001484  80.0298 279.2862 15.08801849  1305,6917.996999999999,95.44,540.889,538.835,0.0
52457.0,STARLINK-3899,PAYLOAD,2022-08-18 08:00:01,15.08855309,0.0001546,53.2167,142.1462,71.0781,311.4111,-0.00032159,-5.405e-05,0.0,0 STARLINK-3899,1 52457U 22049G   22230.33334491 -.00005405  00000-0 -32159-3 0  9998,2 52457  53.2167 142.1462 0001546  71.0781 311.4111 15.08855309 16114,6917.834,95.437,540.768,538.629,0.0
52457.0,STARLINK-3899,PAYLOAD,2022-08-18 14:00:01,15.08843194,0.0001514,53.2168,141.0227,80.2926,220.9109,0.00086407,0.00013492,0.0,0 STARLINK-3899,1 52457U 22049G   22230.58334491  .00013492  00000-0  86407-3 0  9993,2 52457  53.2168 141.0227 0001514  80.2926 220.9109 15.08843194  1305,6917.871,95.437,540.783,538.688,0.0
52457.0,STARLINK-3899,PAYLOAD,2022-08-18 22:00:00,15.08851276,0.0001654,53.2168,139.5273,78.5744,234.2443,-0.0013235999999999,-0.00021298,0.0,0 STARLINK-3899,1 52457U 22049G   22230.91667824 -.00021298  00000-0 -13236-2 0  9993,2 52457  53.2168 139.5273 0001654  78.5744 234.2443 15.08851276  1300,6917.846,95.437,540.855,538.567,0.0
52457.0,STARLINK-3899,PAYLOAD,2022-08-19 14:00:01,15.08793549,0.0001448,53.2164,136.5336,80.6272,255.3992,0.0016284,0.0002569,0.0,0 STARLINK-3899,1 52457U 22049G   22231.58334491  .00025690  00000-0  16284-2 0  9992,2 52457  53.2164 136.5336 0001448  80.6272 255.3992 15.08793549  1305,6918.022,95.44,540.889,538.886,0.0
52457.0,STARLINK-3899,PAYLOAD,2022-08-19 16:00:00,15.08788924,0.0001452,53.2164,136.1593,81.9579,346.9579,0.002565,0.00040713,0.0,0 STARLINK-3899,1 52457U 22049G   22231.66667824  .00040713  00000-0  25650-2 0  9990,2 52457  53.2164 136.1593 0001452  81.9579 346.9579 15.08788924 16311,6918.0369999999975,95.441,540.906,538.8969999999998,0.0
52457.0,STARLINK-3899,PAYLOAD,2022-08-19 22:00:00,15.08817937,0.0001508,53.2166,135.0384,76.6796,270.8881,-0.0013798,-0.00022167,0.0,0 STARLINK-3899,1 52457U 22049G   22231.91667824 -.00022167  00000-0 -13798-2 0  9993,2 52457  53.2166 135.0384 0001508  76.6796 270.8881 15.08817937  1304,6917.948,95.439,540.856,538.77,0.0
52457.0,STARLINK-3899,PAYLOAD,2022-08-20 08:00:01,15.08825436,0.0001512,53.2164,133.1681,71.9277,20.083,-0.0011497,-0.00018532,0.0,0 STARLINK-3899,1 52457U 22049G   22232.33334491 -.00018532  00000-0 -11497-2 0  9996,2 52457  53.2164 133.1681 0001512  71.9277  20.0830 15.08825436 16418,6917.925,95.438,540.836,538.744,0.0
52457.0,STARLINK-3899,PAYLOAD,2022-08-20 14:00:01,15.08798402,0.0001462,53.2165,132.0446,80.1614,290.5436,0.0035876999999999,0.00057209,0.0,0 STARLINK-3899,1 52457U 22049G   22232.58334491  .00057209  00000-0  35877-2 0  9993,2 52457  53.2165 132.0446 0001462  80.1614 290.5436 15.08798402  1307,6918.0080000000025,95.44,540.884,538.861,0.0
52457.0,STARLINK-3899,PAYLOAD,2022-08-20 22:00:00,15.08842049,0.0001582,53.2167,130.5496,75.4915,306.7743,-0.0013834,-0.00022239,0.0,0 STARLINK-3899,1 52457U 22049G   22232.91667824 -.00022239  00000-0 -13834-2 0  9995,2 52457  53.2167 130.5496 0001582  75.4915 306.7743 15.08842049 16507,6917.874,95.437,540.8340000000002,538.645,0.0
52457.0,STARLINK-3899,PAYLOAD,2022-08-21 14:00:01,15.08816878,0.0001528,53.217,127.5556,79.0292,326.4206,0.0033741,0.00053787,0.0,0 STARLINK-3899,1 52457U 22049G   22233.58334491  .00053787  00000-0  33741-2 0  9999,2 52457  53.2170 127.5556 0001528  79.0292 326.4206 15.08816878 16607,6917.951,95.439,540.873,538.759,0.0
52457.0,STARLINK-3899,PAYLOAD,2022-08-21 22:00:00,15.08860317,0.000166,53.2172,126.0607,74.4654,342.5716,-0.0014222,-0.00022864,0.0,0 STARLINK-3899,1 52457U 22049G   22233.91667824 -.00022864  00000-0 -14222-2 0  9992,2 52457  53.2172 126.0607 0001660  74.4654 342.5716 15.08860317  1301,6917.818,95.436,540.832,538.535,0.0
52457.0,STARLINK-3899,PAYLOAD,2022-08-22 06:00:00,15.08860809,0.000162,53.2173,124.5646,69.3024,359.3398,-0.00057294,-9.4e-05,0.0,0 STARLINK-3899,1 52457U 22049G   22234.25001157 -.00009400  00000-0 -57294-3 0  9999,2 52457  53.2173 124.5646 0001620  69.3024 359.3398 15.08860809 16706,6917.816999999999,95.436,540.802,538.561,0.0
52457.0,STARLINK-3899,PAYLOAD,2022-08-22 12:00:00,15.0884349,0.0001520999999999,53.2177,123.441,76.8581,270.5053,-0.00063817,-0.00010431,0.0,0 STARLINK-3899,1 52457U 22049G   22234.50001157 -.00010431  00000-0 -63817-3 0  9991,2 52457  53.2177 123.4410 0001521  76.8581 270.5053 15.08843490  1307,6917.87,95.437,540.7869999999998,538.683,0.0
52457.0,STARLINK-3899,PAYLOAD,2022-08-22 22:00:00,15.08847997,0.0001594,53.2178,121.5718,72.9783,18.8772,-0.0013798,-0.00022185,0.0,0 STARLINK-3899,1 52457U 22049G   22234.91667824 -.00022185  00000-0 -13798-2 0  9996,2 52457  53.2178 121.5718 0001594  72.9783  18.8772 15.08847997  1306,6917.856,95.437,540.8240000000002,538.618,0.0
52457.0,STARLINK-3899,PAYLOAD,2022-08-23 14:00:01,15.08837804,0.000157,53.2182,118.5779,79.1298,35.9235,0.00031617,4.747e-05,0.0,0 STARLINK-3899,1 52457U 22049G   22235.58334491  .00004747  00000-0  31617-3 0  9994,2 52457  53.2182 118.5779 0001570  79.1298  35.9235 15.08837804  1308,6917.887,95.438,540.8380000000002,538.6659999999998,0.0
52457.0,STARLINK-3899,PAYLOAD,2022-08-23 22:00:01,15.08832043,0.0001735,53.2182,117.083,74.8834,51.8312,-0.0012975999999999,-0.00020876,0.0,0 STARLINK-3899,1 52457U 22049G   22235.91668981 -.00020876  00000-0 -12976-2 0  9994,2 52457  53.2182 117.0830 0001735  74.8834  51.8312 15.08832043  1304,6917.905,95.438,540.97,538.569,0.0
52457.0,STARLINK-3899,PAYLOAD,2022-08-24 14:00:01,15.08814891,0.0001646,53.2182,114.0891,81.9314,67.8845,0.0024539,0.00038955,0.0,0 STARLINK-3899,1 52457U 22049G   22236.58334491  .00038955  00000-0  24539-2 0  9997,2 52457  53.2182 114.0891 0001646  81.9314  67.8845 15.08814891  1300,6917.956999999999,95.439,540.961,538.683,0.0
52457.0,STARLINK-3899,PAYLOAD,2022-08-24 22:00:00,15.08842298,0.0001720999999999,53.2181,112.5945,76.4245,84.9744,-0.0010174,-0.00016445,0.0,0 STARLINK-3899,1 52457U 22049G   22236.91667824 -.00016445  00000-0 -10174-2 0  9995,2 52457  53.2181 112.5945 0001721  76.4245  84.9744 15.08842298  1308,6917.873000000001,95.437,540.929,538.548,0.0
52457.0,STARLINK-3899,PAYLOAD,2022-08-25 06:00:02,15.08849846,0.0001698,53.2177,111.0979,75.4874,97.5571,-0.0013309,-0.00021413,0.0,0 STARLINK-3899,1 52457U 22049G   22237.25002315 -.00021413  00000-0 -13309-2 0  9995,2 52457  53.2177 111.0979 0001698  75.4874  97.5571 15.08849846 17169,6917.85,95.437,540.89,538.5409999999998,0.0
52457.0,STARLINK-3899,PAYLOAD,2022-08-25 14:00:01,15.08827156,0.0001661,53.2178,109.6004,84.6025,99.9808,0.0021436,0.0003398,0.0,0 STARLINK-3899,1 52457U 22049G   22237.58334491  .00033980  00000-0  21436-2 0  9994,2 52457  53.2178 109.6004 0001661  84.6025  99.9808 15.08827156  1300,6917.92,95.438,540.934,538.636,0.0
52457.0,STARLINK-3899,PAYLOAD,2022-08-25 22:00:00,15.08847071,0.0001733999999999,53.2176,108.1058,78.2909,117.8882,-0.00075614,-0.00012304,0.0,0 STARLINK-3899,1 52457U 22049G   22237.91667824 -.00012304  00000-0 -75614-3 0  9997,2 52457  53.2176 108.1058 0001734  78.2909 117.8882 15.08847071 17264,6917.859,95.437,540.923,538.524,0.0
52457.0,STARLINK-3899,PAYLOAD,2022-08-26 14:00:01,15.08837101,0.0001695,53.2172,105.1114,86.6879,132.757,0.00188,0.00029757,0.0,0 STARLINK-3899,1 52457U 22049G   22238.58335648  .00029757  00000-0  18800-2 0  9998,2 52457  53.2172 105.1114 0001695  86.6879 132.7570 15.08837101  1306,6917.889,95.438,540.927,538.582,0.0
52457.0,STARLINK-3899,PAYLOAD,2022-08-26 22:00:00,15.08854249,0.0001740999999999,53.217,103.6168,79.5931,151.3967,-0.0008437,-0.00013696,0.0,0 STARLINK-3899,1 52457U 22049G   22238.91667824 -.00013696  00000-0 -84370-3 0  9992,2 52457  53.2170 103.6168 0001741  79.5931 151.3967 15.08854249 17416,6917.837,95.437,540.906,538.497,0.0
52457.0,STARLINK-3899,PAYLOAD,2022-08-27 14:00:01,15.08823026,0.0001617,53.2166,100.6222,87.1027,167.0944,0.0018765,0.00029689,0.0,0 STARLINK-3899,1 52457U 22049G   22239.58334491  .00029689  00000-0  18765-2 0  9998,2 52457  53.2166 100.6222 0001617  87.1027 167.0944 15.08823026  1301,6917.932,95.439,540.9159999999998,538.679,0.0
